FENGYUN 1C DEB          
1 30821U 99025AVF 17345.68790194  .00000205  00000-0  77787-4 0  9990
2 30821  99.0632 254.2946 0099567 190.8956 231.9201 14.39459459566672
